start=new Date('2022-06-28T00:00:00.000Z').valueOf();
sats=[{"SEMIMAJOR_AXIS":"6727.785","ELEMENT_SET_NO":"999","RA_OF_ASC_NODE":"6.4102","TLE_LINE1":"1 52501U 22049BC  22178.91667824 -.00021631  00000-0 -14983-3 0  9996","DECAY_DATE":null,"REF_FRAME":"TEME","NORAD_CAT_ID":"52501","LAUNCH_DATE":"2022-05-06","OBJECT_ID":"2022-049BC","FILE":"3504144","OBJECT_TYPE":"PAYLOAD","ARG_OF_PERICENTER":"30.4875","MEAN_MOTION_DOT":"-0.00021631","PERIAPSIS":"348.364","MEAN_ELEMENT_THEORY":"SGP4","RCS_SIZE":"LARGE","OBJECT_NAME":"STARLINK-3907","APOAPSIS":"350.937","BSTAR":"-0.00014983000000","REV_AT_EPOCH":"130","TLE_LINE2":"2 52501  53.2166   6.4102 0001912  30.4875 223.1842 15.73238477  1304","EPOCH":"2022-06-27T22:00:00.999936","TIME_SYSTEM":"UTC","CENTER_NAME":"EARTH","MEAN_MOTION_DDOT":"0.0000000000000","ECCENTRICITY":"0.00019120","CLASSIFICATION_TYPE":"U","SITE":"AFETR","EPHEMERIS_TYPE":"0","COUNTRY_CODE":"US","MEAN_MOTION":"15.73238477","GP_ID":"206995049","INCLINATION":"53.2166","PERIOD":"91.531","MEAN_ANOMALY":"223.1842"},{"APOAPSIS":"350.937","BSTAR":"0.00056760000000","OBJECT_NAME":"STARLINK-3912","MEAN_ELEMENT_THEORY":"SGP4","RCS_SIZE":"LARGE","MEAN_MOTION_DOT":"0.00079588","PERIAPSIS":"348.931","CENTER_NAME":"EARTH","TIME_SYSTEM":"UTC","EPOCH":"2022-06-27T22:00:00.999936","REV_AT_EPOCH":"130","TLE_LINE2":"2 52502  53.2152   6.3984 0001491  43.6731 213.1155 15.73139043  1301","COUNTRY_CODE":"US","MEAN_MOTION":"15.73139043","SITE":"AFETR","EPHEMERIS_TYPE":"0","ECCENTRICITY":"0.00014910","CLASSIFICATION_TYPE":"U","MEAN_MOTION_DDOT":"0.0000000000000","MEAN_ANOMALY":"213.1155","PERIOD":"91.537","GP_ID":"206994328","INCLINATION":"53.2152","NORAD_CAT_ID":"52502","REF_FRAME":"TEME","DECAY_DATE":null,"TLE_LINE1":"1 52502U 22049BD  22178.91667824  .00079588  00000-0  56760-3 0  9998","RA_OF_ASC_NODE":"6.3984","SEMIMAJOR_AXIS":"6728.069","ELEMENT_SET_NO":"999","OBJECT_ID":"2022-049BD","LAUNCH_DATE":"2022-05-06","FILE":"3504144","OBJECT_TYPE":"PAYLOAD","ARG_OF_PERICENTER":"43.6731"},{"REV_AT_EPOCH":"130","TLE_LINE2":"2 52503  53.2153   6.3994 0001825  33.8378 222.3535 15.73154635  1301","EPOCH":"2022-06-27T22:00:00.999936","TIME_SYSTEM":"UTC","CENTER_NAME":"EARTH","MEAN_MOTION_DOT":"0.00080976","PERIAPSIS":"348.662","MEAN_ELEMENT_THEORY":"SGP4","RCS_SIZE":"LARGE","OBJECT_NAME":"STARLINK-3861","APOAPSIS":"351.117","BSTAR":"0.00057693000000","GP_ID":"206994882","INCLINATION":"53.2153","PERIOD":"91.536","MEAN_ANOMALY":"222.3535","MEAN_MOTION_DDOT":"0.0000000000000","CLASSIFICATION_TYPE":"U","ECCENTRICITY":"0.00018250","SITE":"AFETR","EPHEMERIS_TYPE":"0","COUNTRY_CODE":"US","MEAN_MOTION":"15.73154635","LAUNCH_DATE":"2022-05-06","OBJECT_ID":"2022-049BE","SEMIMAJOR_AXIS":"6728.025","ELEMENT_SET_NO":"999","TLE_LINE1":"1 52503U 22049BE  22178.91667824  .00080976  00000-0  57693-3 0  9998","RA_OF_ASC_NODE":"6.3994","DECAY_DATE":null,"REF_FRAME":"TEME","NORAD_CAT_ID":"52503","OBJECT_TYPE":"PAYLOAD","ARG_OF_PERICENTER":"33.8378","FILE":"3504144"},{"PERIOD":"93.946","MEAN_ANOMALY":"220.8662","GP_ID":"206995052","INCLINATION":"53.2174","MEAN_MOTION":"15.32803350","COUNTRY_CODE":"US","EPHEMERIS_TYPE":"0","SITE":"AFWTR","ECCENTRICITY":"0.00014930","CLASSIFICATION_TYPE":"U","MEAN_MOTION_DDOT":"0.0000000000000","TIME_SYSTEM":"UTC","CENTER_NAME":"EARTH","EPOCH":"2022-06-27T22:00:00.999936","TLE_LINE2":"2 52533  53.2174  74.3721 0001493  56.8379 220.8662 15.32803350  1301","REV_AT_EPOCH":"130","BSTAR":"-0.02409100000000","APOAPSIS":"468.477","OBJECT_NAME":"STARLINK-3951","RCS_SIZE":"LARGE","MEAN_ELEMENT_THEORY":"SGP4","PERIAPSIS":"466.433","MEAN_MOTION_DOT":"-0.00714638","ARG_OF_PERICENTER":"56.8379","OBJECT_TYPE":"PAYLOAD","FILE":"3504144","OBJECT_ID":"2022-051A","LAUNCH_DATE":"2022-05-13","NORAD_CAT_ID":"52533","DECAY_DATE":null,"REF_FRAME":"TEME","RA_OF_ASC_NODE":"74.3721","TLE_LINE1":"1 52533U 22051A   22178.91667824 -.00714638  00000-0 -24091-1 0  9999","SEMIMAJOR_AXIS":"6845.590","ELEMENT_SET_NO":"999"},{"NORAD_CAT_ID":"52534","DECAY_DATE":null,"REF_FRAME":"TEME","TLE_LINE1":"1 52534U 22051B   22178.91667824 -.00714157  00000-0 -24336-1 0  9998","RA_OF_ASC_NODE":"74.3579","SEMIMAJOR_AXIS":"6846.611","ELEMENT_SET_NO":"999","OBJECT_ID":"2022-051B","LAUNCH_DATE":"2022-05-13","FILE":"3504144","ARG_OF_PERICENTER":"58.9241","OBJECT_TYPE":"PAYLOAD","BSTAR":"-0.02433600000000","APOAPSIS":"469.495","OBJECT_NAME":"STARLINK-3952","RCS_SIZE":"LARGE","MEAN_ELEMENT_THEORY":"SGP4","PERIAPSIS":"467.458","MEAN_MOTION_DOT":"-0.00714157","CENTER_NAME":"EARTH","TIME_SYSTEM":"UTC","EPOCH":"2022-06-27T22:00:00.999936","TLE_LINE2":"2 52534  53.2174  74.3579 0001488  58.9241 203.1751 15.32460360  1301","REV_AT_EPOCH":"130","MEAN_MOTION":"15.32460360","COUNTRY_CODE":"US","EPHEMERIS_TYPE":"0","SITE":"AFWTR","ECCENTRICITY":"0.00014880","CLASSIFICATION_TYPE":"U","MEAN_MOTION_DDOT":"0.0000000000000","MEAN_ANOMALY":"203.1751","PERIOD":"93.967","INCLINATION":"53.2174","GP_ID":"206994331"},{"OBJECT_TYPE":"PAYLOAD","ARG_OF_PERICENTER":"61.6851","FILE":"3504144","LAUNCH_DATE":"2022-05-13","OBJECT_ID":"2022-051C","DECAY_DATE":null,"REF_FRAME":"TEME","NORAD_CAT_ID":"52535","ELEMENT_SET_NO":"999","SEMIMAJOR_AXIS":"6846.021","TLE_LINE1":"1 52535U 22051C   22178.91667824 -.00714346  00000-0 -24191-1 0  9998","RA_OF_ASC_NODE":"74.3662","PERIOD":"93.954","MEAN_ANOMALY":"209.3431","GP_ID":"206994885","INCLINATION":"53.2174","SITE":"AFWTR","EPHEMERIS_TYPE":"0","COUNTRY_CODE":"US","MEAN_MOTION":"15.32658721","MEAN_MOTION_DDOT":"0.0000000000000","CLASSIFICATION_TYPE":"U","ECCENTRICITY":"0.00014490","EPOCH":"2022-06-27T22:00:00.999936","CENTER_NAME":"EARTH","TIME_SYSTEM":"UTC","REV_AT_EPOCH":"130","TLE_LINE2":"2 52535  53.2174  74.3662 0001449  61.6851 209.3431 15.32658721  1303","OBJECT_NAME":"STARLINK-3958","APOAPSIS":"468.878","BSTAR":"-0.02419100000000","MEAN_MOTION_DOT":"-0.00714346","PERIAPSIS":"466.894","MEAN_ELEMENT_THEORY":"SGP4","RCS_SIZE":"LARGE"},{"GP_ID":"206994435","INCLINATION":"53.2174","PERIOD":"93.943","MEAN_ANOMALY":"222.7025","ECCENTRICITY":"0.00014690","CLASSIFICATION_TYPE":"U","MEAN_MOTION_DDOT":"0.0000000000000","MEAN_MOTION":"15.32848517","COUNTRY_CODE":"US","EPHEMERIS_TYPE":"0","SITE":"AFWTR","TLE_LINE2":"2 52536  53.2174  74.3735 0001469  57.6553 222.7025 15.32848517  1303","REV_AT_EPOCH":"130","TIME_SYSTEM":"UTC","CENTER_NAME":"EARTH","EPOCH":"2022-06-27T22:00:00.999936","RCS_SIZE":"LARGE","MEAN_ELEMENT_THEORY":"SGP4","PERIAPSIS":"466.315","MEAN_MOTION_DOT":"-0.00714757","BSTAR":"-0.02406100000000","APOAPSIS":"468.326","OBJECT_NAME":"STARLINK-3964","ARG_OF_PERICENTER":"57.6553","OBJECT_TYPE":"PAYLOAD","FILE":"3504144","OBJECT_ID":"2022-051D","LAUNCH_DATE":"2022-05-13","RA_OF_ASC_NODE":"74.3735","TLE_LINE1":"1 52536U 22051D   22178.91667824 -.00714757  00000-0 -24061-1 0  9991","SEMIMAJOR_AXIS":"6845.455","ELEMENT_SET_NO":"999","NORAD_CAT_ID":"52536","REF_FRAME":"TEME","DECAY_DATE":null},{"CENTER_NAME":"EARTH","TIME_SYSTEM":"UTC","EPOCH":"2022-06-27T22:00:00.999936","TLE_LINE2":"2 52537  53.2173  74.3817 0001485  55.2357 233.8703 15.33046897  1306","REV_AT_EPOCH":"130","BSTAR":"-0.02392000000000","APOAPSIS":"467.746","OBJECT_NAME":"STARLINK-3897","RCS_SIZE":"LARGE","MEAN_ELEMENT_THEORY":"SGP4","PERIAPSIS":"465.713","MEAN_MOTION_DOT":"-0.00715029","MEAN_ANOMALY":"233.8703","PERIOD":"93.931","INCLINATION":"53.2173","GP_ID":"206994986","MEAN_MOTION":"15.33046897","COUNTRY_CODE":"US","EPHEMERIS_TYPE":"0","SITE":"AFWTR","ECCENTRICITY":"0.00014850","CLASSIFICATION_TYPE":"U","MEAN_MOTION_DDOT":"0.0000000000000","OBJECT_ID":"2022-051E","LAUNCH_DATE":"2022-05-13","NORAD_CAT_ID":"52537","REF_FRAME":"TEME","DECAY_DATE":null,"RA_OF_ASC_NODE":"74.3817","TLE_LINE1":"1 52537U 22051E   22178.91667824 -.00715029  00000-0 -23920-1 0  9998","SEMIMAJOR_AXIS":"6844.865","ELEMENT_SET_NO":"999","ARG_OF_PERICENTER":"55.2357","OBJECT_TYPE":"PAYLOAD","FILE":"3504144"},{"RCS_SIZE":"LARGE","MEAN_ELEMENT_THEORY":"SGP4","PERIAPSIS":"464.631","MEAN_MOTION_DOT":"-0.00715667","BSTAR":"-0.02364400000000","APOAPSIS":"466.467","OBJECT_NAME":"STARLINK-3933","TLE_LINE2":"2 52538  53.2173  74.3980 0001341  63.9873 242.3378 15.33443777  1309","REV_AT_EPOCH":"130","TIME_SYSTEM":"UTC","CENTER_NAME":"EARTH","EPOCH":"2022-06-27T22:00:00.999936","ECCENTRICITY":"0.00013410","CLASSIFICATION_TYPE":"U","MEAN_MOTION_DDOT":"0.0000000000000","MEAN_MOTION":"15.33443777","COUNTRY_CODE":"US","EPHEMERIS_TYPE":"0","SITE":"AFWTR","GP_ID":"206994678","INCLINATION":"53.2173","PERIOD":"93.906","MEAN_ANOMALY":"242.3378","RA_OF_ASC_NODE":"74.3980","TLE_LINE1":"1 52538U 22051F   22178.91667824 -.00715667  00000-0 -23644-1 0  9990","ELEMENT_SET_NO":"999","SEMIMAJOR_AXIS":"6843.684","NORAD_CAT_ID":"52538","REF_FRAME":"TEME","DECAY_DATE":null,"OBJECT_ID":"2022-051F","LAUNCH_DATE":"2022-05-13","FILE":"3504144","ARG_OF_PERICENTER":"63.9873","OBJECT_TYPE":"PAYLOAD"},{"DECAY_DATE":null,"REF_FRAME":"TEME","NORAD_CAT_ID":"52539","SEMIMAJOR_AXIS":"6844.274","ELEMENT_SET_NO":"999","RA_OF_ASC_NODE":"74.3898","TLE_LINE1":"1 52539U 22051G   22178.91667824 -.00715625  00000-0 -23791-1 0  9998","LAUNCH_DATE":"2022-05-13","OBJECT_ID":"2022-051G","FILE":"3504144","OBJECT_TYPE":"PAYLOAD","ARG_OF_PERICENTER":"57.6480","OBJECT_NAME":"STARLINK-3757","APOAPSIS":"467.173","BSTAR":"-0.02379100000000","MEAN_MOTION_DOT":"-0.00715625","PERIAPSIS":"465.104","MEAN_ELEMENT_THEORY":"SGP4","RCS_SIZE":"LARGE","EPOCH":"2022-06-27T22:00:00.999936","TIME_SYSTEM":"UTC","CENTER_NAME":"EARTH","REV_AT_EPOCH":"130","TLE_LINE2":"2 52539  53.2173  74.3898 0001512  57.6480 240.1137 15.33245569  1300","SITE":"AFWTR","EPHEMERIS_TYPE":"0","COUNTRY_CODE":"US","MEAN_MOTION":"15.33245569","MEAN_MOTION_DDOT":"0.0000000000000","CLASSIFICATION_TYPE":"U","ECCENTRICITY":"0.00015120","MEAN_ANOMALY":"240.1137","PERIOD":"93.918","INCLINATION":"53.2173","GP_ID":"206994539"}];
